H1 CPF  1  DLR 2021 07 03 10  6842 technosat            
H2  1704205 6203    42829 2021 07 03 00 00 00 2021 07 10 00 00 00    60 1 1  0 0 0
H9
10 0 59404  21600.000000  0       2200670.119       2962655.914      -5932699.276
10 0 59404  21660.000000  0       2521019.093       3177574.356      -5688255.490
10 0 59404  21720.000000  0       2832654.524       3376462.698      -5419892.660
10 0 59404  21780.000000  0       3134123.608       3558563.422      -5128723.520
10 0 59404  21840.000000  0       3424007.527       3723200.125      -4815957.711
10 0 59404  21900.000000  0       3700928.182       3869780.198      -4482897.150
10 0 59404  21960.000000  0       3963554.838       3997797.169      -4130930.995
10 0 59404  22020.000000  0       4210610.672       4106832.661      -3761530.185
10 0 59404  22080.000000  0       4440879.171       4196557.930      -3376241.542
10 0 59404  22140.000000  0       4653210.286       4266734.989      -2976681.490
10 0 59404  22200.000000  0       4846526.313       4317217.290      -2564529.435
10 0 59404  22260.000000  0       5019827.569       4347950.017      -2141520.870
10 0 59404  22320.000000  0       5172197.805       4358969.924      -1709440.083
10 0 59404  22380.000000  0       5302809.195       4350404.703      -1270112.556
10 0 59404  22440.000000  0       5410926.929       4322471.916       -825397.194
10 0 59404  22500.000000  0       5495913.416       4275477.495       -377178.329
10 0 59404  22560.000000  0       5557232.037       4209813.828         72642.413
10 0 59404  22620.000000  0       5594450.497       4125957.410        522154.388
10 0 59404  22680.000000  0       5607243.656       4024466.037        969446.350
10 0 59404  22740.000000  0       5595395.815       3905975.559       1412614.852
10 0 59404  22800.000000  0       5558802.508       3771196.267       1849772.650
10 0 59404  22860.000000  0       5497471.683       3620908.923       2279057.083
10 0 59404  22920.000000  0       5411524.305       3455960.458       2698638.324
10 0 59404  22980.000000  0       5301194.429       3277259.353       3106727.483
10 0 59404  23040.000000  0       5166828.688       3085770.711       3501584.524
10 0 59404  23100.000000  0       5008885.221       2882511.060       3881525.929
10 0 59404  23160.000000  0       4827931.985       2668542.885       4244932.095
10 0 59404  23220.000000  0       4624644.565       2444968.997       4590254.158
10 0 59404  23280.000000  0       4399803.753       2212926.969       4916020.777
10 0 59404  23340.000000  0       4154292.240       1973583.255       5220844.710
10 0 59404  23400.000000  0       3889090.830       1728127.236       5503428.687
10 0 59404  23460.000000  0       3605274.281       1477765.194       5762570.901
10 0 59404  23520.000000  0       3304006.686       1223714.253       5997170.035
10 0 59404  23580.000000  0       2986536.462        967196.376       6206229.779
10 0 59404  23640.000000  0       2654190.983        709432.459       6388862.883
10 0 59404  23700.000000  0       2308370.902        451636.537       6544294.824
10 0 59404  23760.000000  0       1950544.109        195010.030       6671867.029
10 0 59404  23820.000000  0       1582239.360        -59263.889       6771039.611
10 0 59404  23880.000000  0       1205039.575       -310025.804       6841393.618
10 0 59404  23940.000000  0        820574.847       -556145.442       6882632.663
10 0 59404  24000.000000  0        430515.320       -796526.780       6894584.017
10 0 59404  24060.000000  0         36563.837      -1030112.947       6877199.319
10 0 59404  24120.000000  0       -359551.586      -1255890.927       6830554.699
10 0 59404  24180.000000  0       -756085.416      -1472896.013       6754850.403
10 0 59404  24240.000000  0      -1151282.367      -1680215.963       6650409.881
10 0 59404  24300.000000  0      -1543385.185      -1876994.845       6517678.361
10 0 59404  24360.000000  0      -1930642.445      -2062436.549       6357221.030
10 0 59404  24420.000000  0      -2311316.400      -2235808.024       6169720.771
10 0 59404  24480.000000  0      -2683690.866      -2396442.258       5955975.493
10 0 59404  24540.000000  0      -3046079.212      -2543740.973       5716894.905
10 0 59404  24600.000000  0      -3396832.254      -2677176.919       5453496.625
10 0 59404  24660.000000  0      -3734345.881      -2796295.758       5166901.843
10 0 59404  24720.000000  0      -4057068.566      -2900717.638       4858330.589
10 0 59404  24780.000000  0      -4363508.677      -2990138.347       4529096.531
10 0 59404  24840.000000  0      -4652241.540      -3064330.068       4180601.374
10 0 59404  24900.000000  0      -4921916.236      -3123141.769       3814328.873
10 0 59404  24960.000000  0      -5171262.078      -3166499.202       3431838.490
10 0 59404  25020.000000  0      -5399094.796      -3194404.537       3034758.725
10 0 59404  25080.000000  0      -5604322.376      -3206935.619       2624780.072
10 0 59404  25140.000000  0      -5785950.457      -3204244.857       2203647.643
10 0 59404  25200.000000  0      -5943087.259      -3186557.715       1773153.517
10 0 59404  25260.000000  0      -6074948.038      -3154170.817       1335128.852
10 0 59404  25320.000000  0      -6180858.980      -3107449.630        891435.847
10 0 59404  25380.000000  0      -6260260.593      -3046825.863        443959.624
10 0 59404  25440.000000  0      -6312710.590      -2972794.562         -5400.017
10 0 59404  25500.000000  0      -6337886.203      -2885910.884       -454736.954
10 0 59404  25560.000000  0      -6335585.874      -2786786.546       -902147.122
10 0 59404  25620.000000  0      -6305730.295      -2676085.993      -1345736.830
10 0 59404  25680.000000  0      -6248362.848      -2554522.360      -1783630.940
10 0 59404  25740.000000  0      -6163649.475      -2422853.229      -2213980.890
10 0 59404  25800.000000  0      -6051878.013      -2281876.206      -2634972.564
10 0 59404  25860.000000  0      -5913456.943      -2132424.349      -3044833.969
10 0 59404  25920.000000  0      -5748913.563      -1975361.469      -3441842.684
10 0 59404  25980.000000  0      -5558891.606      -1811577.333      -3824332.993
10 0 59404  26040.000000  0      -5344148.371      -1641982.814      -4190702.716
10 0 59404  26100.000000  0      -5105551.364      -1467505.001      -4539419.728
10 0 59404  26160.000000  0      -4844074.465      -1289082.296      -4869028.147
10 0 59404  26220.000000  0      -4560793.597      -1107659.504      -5178154.138
10 0 59404  26280.000000  0      -4256881.971       -924182.985      -5465511.284
10 0 59404  26340.000000  0      -3933604.985       -739595.888      -5729905.541
10 0 59404  26400.000000  0      -3592314.745       -554833.459      -5970239.812
10 0 59404  26460.000000  0      -3234444.265       -370818.471      -6185518.067
10 0 59404  26520.000000  0      -2861501.389       -188456.795      -6374849.043
10 0 59404  26580.000000  0      -2475062.428         -8633.129      -6537449.569
10 0 59404  26640.000000  0      -2076765.488        167793.095      -6672647.439
10 0 59404  26700.000000  0      -1668303.620        339991.605      -6779883.791
10 0 59404  26760.000000  0      -1251417.838        507165.008      -6858715.149
10 0 59404  26820.000000  0       -827889.909        668552.368      -6908815.045
10 0 59404  26880.000000  0       -399534.980        823432.548      -6929975.167
10 0 59404  26940.000000  0         31805.877        971127.288      -6922106.089
10 0 59404  27000.000000  0        464273.209       1111004.005      -6885237.711
10 0 59404  27060.000000  0        895996.951       1242478.430      -6819519.360
10 0 59404  27120.000000  0       1325104.359       1365017.042      -6725219.285
10 0 59404  27180.000000  0       1749727.838       1478139.201      -6602723.659
10 0 59404  27240.000000  0       2168012.821       1581419.012      -6452535.303
10 0 59404  27300.000000  0       2578125.761       1674486.937      -6275271.898
10 0 59404  27360.000000  0       2978261.997       1757031.094      -6071663.676
10 0 59404  27420.000000  0       3366653.501       1828798.278      -5842550.808
10 0 59404  27480.000000  0       3741576.626       1889594.729      -5588880.395
10 0 59404  27540.000000  0       4101359.777       1939286.603      -5311703.004
10 0 59404  27600.000000  0       4444390.984       1977800.184      -5012168.769
10 0 59404  27660.000000  0       4769125.295       2005121.773      -4691522.980
10 0 59404  27720.000000  0       5074091.893       2021297.264      -4351101.276
10 0 59404  27780.000000  0       5357901.010       2026431.434      -3992324.438
10 0 59404  27840.000000  0       5619250.516       2020686.923      -3616692.771
10 0 59404  27900.000000  0       5856932.209       2004282.928      -3225780.171
10 0 59404  27960.000000  0       6069837.854       1977493.608      -2821227.779
10 0 59404  28020.000000  0       6256964.757       1940646.213      -2404737.182
10 0 59404  28080.000000  0       6417420.885       1894118.929      -1978063.332
10 0 59404  28140.000000  0       6550429.492       1838338.428      -1543007.134
10 0 59404  28200.000000  0       6655333.231       1773777.147      -1101407.839
10 0 59404  28260.000000  0       6731597.834       1700950.341       -655135.163
10 0 59404  28320.000000  0       6778815.102       1620412.866       -206081.094
10 0 59404  28380.000000  0       6796705.182       1532755.759        243848.335
10 0 59404  28440.000000  0       6785118.334       1438602.688        692741.252
10 0 59404  28500.000000  0       6744036.200       1338606.209       1138688.288
10 0 59404  28560.000000  0       6673572.440       1233443.830       1579791.053
10 0 59404  28620.000000  0       6573972.569       1123813.952       2014170.636
10 0 59404  28680.000000  0       6445613.084       1010431.686       2439975.915
10 0 59404  28740.000000  0       6289000.028        894024.629       2855391.667
99
